satname,norad_id,inclination_deg,eccentricity,mean_motion_rev_per_day,perigee_km,apogee_km,l1,l2
STARLINK-1296,45412,53.1569,0.0002443,15.33772564,462.8970749173286,466.2404209457691,1 45412U 20019BE  26107.84136633  .00035535  00000+0  10790-2 0  9997,2 45412  53.1569 306.9358 0002443 226.3849 133.6951 15.33772564335976
STARLINK-1309,45414,53.0637,0.0005432,15.62561374,376.5901700250852,383.9324939729695,1 45414U 20019BG  26107.93256108  .00076230  00000+0  83635-3 0  9995,2 45414  53.0637 292.8923 0005432 200.1956 159.8843 15.62561374336152
STARLINK-1316,45415,53.1598,0.0002749,15.34012947,461.97302187541754,465.73474846408317,1 45415U 20019BH  26107.82002141  .00034157  00000+0  10299-2 0  9997,2 45415  53.1598 307.0733 0002749 229.7454 130.3308 15.34012947335993
STARLINK-1286,45417,53.0473,0.0003017,15.5402614,402.93853054873034,407.0314663625986,1 45417U 20019BK  26107.81186506  .00034025  00000+0  52153-3 0  9996,2 45417  53.0473 302.2923 0003017 178.5644 181.5375 15.54026140336305
STARLINK-1308,45419,53.0506,0.0005856,15.5787848,389.8324843275368,397.76377475125264,1 45419U 20019BM  26107.90515262  .00060669  00000+0  79875-3 0  9996,2 45419  53.0506 322.7168 0005856 186.0415 174.0527 15.57878480335776
STARLINK-1329,45531,53.0444,0.0002008,15.67292123,365.3003282432237,368.00903658288007,1 45531U 20025A   26107.70517661  .00036732  00000+0  33847-3 0  9994,2 45531  53.0444 250.3745 0002008 339.6338  20.4597 15.67292123331553
STARLINK-1338,45532,53.0471,6.68e-05,15.61786193,382.04585727038375,382.9490780352626,1 45532U 20025B   26107.69834633  .00069277  00000+0  78490-3 0  9997,2 45532  53.0471 255.2116 0000668 243.3721 116.7224 15.61786193331484
STARLINK-1350,45535,53.0721,7.49e-05,15.37091665,454.202940825473,455.2265020133418,1 45535U 20025E   26107.61986436  .00007925  00000+0  22543-3 0  9991,2 45535  53.0721 210.1674 0000749 105.1609 254.9477 15.37091665332149
STARLINK-1362,45538,53.1612,0.000231,15.32501379,466.7706281838073,469.93370617904566,1 45538U 20025H   26107.75720696 -.00170138  00000+0 -54566-2 0  9991,2 45538  53.1612 279.2905 0002310  67.7402 292.3845 15.32501379331164
STARLINK-1368,45540,53.1578,8.31e-05,15.32916939,466.5459230756669,467.6836039187601,1 45540U 20025K   26107.77095541  .00031724  00000+0  99132-3 0  9994,2 45540  53.1578 279.6025 0000831  46.4978 313.6093 15.32916939331156
STARLINK-1371,45542,53.0482,0.0002847,15.53682447,404.0538600287746,407.9167392661939,1 45542U 20025M   26107.81139069  .00054305  00000+0  83635-3 0  9996,2 45542  53.0482 261.5767 0002847 296.5065  63.5653 15.53682447331406
STARLINK-1372,45543,53.1597,6.9e-05,15.33319447,465.4445176526315,466.38899707114797,1 45543U 20025N   26107.74551024  .00032641  00000+0  10067-2 0  9995,2 45543  53.1597 279.3937 0000690  43.8968 316.2089 15.33319447330258
STARLINK-1373,45544,53.0473,0.0001647,15.57912116,392.5853348439259,394.81597816797967,1 45544U 20025P   26107.72594551  .00060741  00000+0  79915-3 0  9996,2 45544  53.0473 260.4200 0001647 238.2851 121.8000 15.57912116331419
STARLINK-1327,45555,53.0434,0.000383,15.60467711,383.7143140108483,388.8958766558744,1 45555U 20025AA  26107.66748598  .00060689  00000+0  72471-3 0  9994,2 45555  53.0434 237.4627 0003830 240.8411 119.2218 15.60467711331728
STARLINK-1356,45564,53.0483,0.0002217,15.50970479,412.38550958155884,415.39709493077953,1 45564U 20025AK  26107.85708525  .00050566  00000+0  85934-3 0  9992,2 45564  53.0483 246.4892 0002217 232.6379 127.4427 15.50970479331616
STARLINK-1357,45565,53.0481,0.0006497,15.64079887,371.49819924900567,380.2743771096666,1 45565U 20025AL  26107.54259644  .00071915  00000+0  74393-3 0  9990,2 45565  53.0481 208.8107 0006497 318.6511  41.4011 15.64079887332122
STARLINK-1361,45567,53.0471,0.000245,15.5419429,402.8339956285472,406.15748567146693,1 45567U 20025AN  26107.86663016  .00061363  00000+0  92593-3 0  9997,2 45567  53.0471 245.6215 0002450 177.8980 182.2041 15.54194290331639
STARLINK-1363,45568,53.0373,0.0001655,15.88415103,305.61952547822693,307.83221508829047,1 45568U 20025AP  26108.00004630  .00123773  00000+0  43339-3 0  9994,2 45568  53.0373 199.7796 0001655 357.7340  77.8817 15.88415103  6049
STARLINK-1366,45569,53.0383,0.00015,15.85881408,312.8402585143958,314.84785283109795,1 45569U 20025AQ  26107.53310789  .00104258  00000+0  41480-3 0  9999,2 45569  53.0383 203.3389 0001500 302.7131  57.3748 15.85881408332183
STARLINK-1376,45570,53.1603,0.0002475,15.33792394,462.81621436250225,466.20332451337254,1 45570U 20025AR  26107.80004869  .00033889  00000+0  10291-2 0  9996,2 45570  53.1603 255.6787 0002475 307.6679  52.4098 15.33792394331491
STARLINK-1320,45572,53.0446,0.0002781,15.75447316,341.4893450314248,345.22784088022763,1 45572U 20025AT  26107.84037733  .00060099  00000+0  38979-3 0  9995,2 45572  53.0446 151.5546 0002781 109.2264 250.9056 15.75447316332969
STARLINK-1321,45573,53.0455,0.0003231,15.55355294,398.9296522236082,403.3104081165038,1 45573U 20025AU  26107.65621069  .00054168  00000+0  78485-3 0  9992,2 45573  53.0455 230.9666 0003231 297.4119  62.6563 15.55355294331517
STARLINK-1331,45578,53.0496,0.0005038,15.55008976,398.7106406012417,405.5424341414964,1 45578U 20025AZ  26107.86093441  .00051880  00000+0  76162-3 0  9995,2 45578  53.0496 236.7209 0005038 274.6771  85.3664 15.55008976331765
STARLINK-1333,45580,53.159,9.06e-05,15.30899443,472.50672931162717,473.7481784306701,1 45580U 20025BB  26107.68373290  .00030670  00000+0  10211-2 0  9997,2 45580  53.1590 256.6576 0000906  39.5144 320.5923 15.30899443331473
STARLINK-1335,45581,53.1568,0.0001138,15.32408171,467.85062527705486,469.4089493978536,1 45581U 20025BC  26107.83051927  .00007590  00000+0  25057-3 0  9995,2 45581  53.1568 253.2724 0001138  17.6503 342.4538 15.32408171331528
STARLINK-1337,45582,53.0495,0.0005496,15.65997866,366.6614556996201,374.07941507259693,1 45582U 20025BD  26107.84394000  .00074193  00000+0  71103-3 0  9995,2 45582  53.0495 230.4902 0005496 288.2136  71.8281 15.65997866331833
STARLINK-1347,45586,53.0405,0.000362,15.62358532,378.3995321569846,383.29303605467703,1 45586U 20025BH  26107.54956423  .00067023  00000+0  74295-3 0  9998,2 45586  53.0405 200.6716 0003620 327.6151  32.4640 15.62358532332226
STARLINK-1364,45589,53.0468,0.0004519,15.56545766,394.60101330096677,400.72498133854424,1 45589U 20025BL  26107.74869151  .00061899  00000+0  85639-3 0  9993,2 45589  53.0468 234.8997 0004519 239.5150 120.5415 15.56545766331763
STARLINK-1365,45590,53.0497,0.000314,15.5152884,410.1294852247138,414.39385558972936,1 45590U 20025BM  26107.84608397  .00054166  00000+0  90138-3 0  9998,2 45590  53.0497 266.0861 0003140 231.6653 128.4074 15.51528840331356
STARLINK-1443,45660,53.1344,0.000168,15.28620759,478.78230147868817,481.0866134884018,1 45660U 20035D   26107.66085588  .00026149  00000+0  93609-3 0  9994,2 45660  53.1344 244.6969 0001680 264.2021  95.8787 15.28620759324711
STARLINK-1446,45663,53.0237,0.0003717,15.44630994,429.93103923846047,434.994038935818,1 45663U 20035G   26107.91413928  .00024599  00000+0  52721-3 0  9995,2 45663  53.0237 172.8094 0003717  34.8259 325.2989 15.44630994325739
STARLINK-1448,45665,53.0464,0.0005591,15.60898162,381.2801076965252,388.8427161607442,1 45665U 20035J   26107.81633363  .00072476  00000+0  84860-3 0  9999,2 45665  53.0464 223.1114 0005591 275.7494  84.2881 15.60898162325010
STARLINK-1451,45668,53.0527,4.83e-05,15.12058674,529.5889869452376,530.2563055070632,1 45668U 20035M   26107.70330258  .00014628  00000+0  85622-3 0  9999,2 45668  53.0527 249.6375 0000483  71.4510 288.6534 15.12058674324646
STARLINK-1452,45669,53.0284,0.0001157,15.50802608,413.5955471968173,415.1673359641991,1 45669U 20035N   26107.93272294  .00052000  00000+0  88863-3 0  9996,2 45669  53.0284 193.8885 0001157 249.9682 110.1201 15.50802608325449
STARLINK-1453,45670,53.043,0.0002462,15.61435967,381.8436411870607,385.17307536147473,1 45670U 20035P   26107.92618621  .00083210  00000+0  95267-3 0  9998,2 45670  53.0430 183.0498 0002462   6.2498 353.8545 15.61435967325487
STARLINK-1454,45671,53.0473,0.0004101,15.59112003,387.45011714825705,393.00152833547054,1 45671U 20035Q   26107.75889770  .00037445  00000+0  47460-3 0  9996,2 45671  53.0473 223.9140 0004101 256.2768 103.7788 15.59112003324998
STARLINK-1456,45673,53.0464,0.0005928,15.570281,392.24772845607094,400.2794577992818,1 45673U 20035S   26107.54367151  .00057053  00000+0  77610-3 0  9996,2 45673  53.0464 218.9279 0005928 324.5090  35.5526 15.57028100325065
STARLINK-1457,45674,53.0406,0.0004289,15.92550383,292.2865626627654,298.01090716617455,1 45674U 20035T   26108.00004630  .00206898  27214-4  60059-3 0  9992,2 45674  53.0406 183.6537 0004289 338.3416 323.9431 15.92550383  6068
STARLINK-1458,45675,53.0496,0.0004888,15.48883971,416.666722214135,423.31257082377215,1 45675U 20035U   26107.66465038  .00050385  00000+0  92136-3 0  9995,2 45675  53.0496 229.6627 0004888 266.2434  93.8015 15.48883971324880
STARLINK-1460,45676,53.1587,0.0001172,15.30880589,472.3807314469259,473.9866810204685,1 45676U 20035V   26107.65493628  .00031313  00000+0  10428-2 0  9994,2 45676  53.1587 243.9323 0001172  36.4930 323.6151 15.30880589324682
STARLINK-1392,45677,53.156,0.0001068,15.33716756,464.0039205077446,465.46555791123865,1 45677U 20035W   26107.77592551  .00034373  00000+0  10461-2 0  9999,2 45677  53.1560 243.1453 0001068  68.8299 291.2817 15.33716756324744
STARLINK-1394,45679,53.0455,0.0007043,15.56991853,391.59744769600275,401.1400164702145,1 45679U 20035Y   26107.66902310  .00051126  00000+0  69742-3 0  9999,2 45679  53.0455 208.5405 0007043 325.3610  34.6941 15.56991853325215
STARLINK-1402,45685,53.0445,0.0007286,15.51076668,408.6328579020783,418.52974981446005,1 45685U 20035AE  26107.52083898  .00042602  00000+0  72260-3 0  9990,2 45685  53.0445 197.6016 0007286 353.7099   6.3817 15.51076668325369
